[{"OBJECT_NAME":"FLOCK 4Q-28","OBJECT_ID":"2023-174AA","EPOCH":"2025-03-09T18:51:04.810176","MEAN_MOTION":15.31029403,"ECCENTRICITY":0.0007959,"INCLINATION":97.4262,"RA_OF_ASC_NODE":148.1254,"ARG_OF_PERICENTER":28.7609,"MEAN_ANOMALY":331.4069,"EPHEMERIS_TYPE":0,"CLASSIFICATION_TYPE":"U","NORAD_CAT_ID":58280,"ELEMENT_SET_NO":999,"REV_AT_EPOCH":7419,"BSTAR":0.00081892,"MEAN_MOTION_DOT":0.00024547,"MEAN_MOTION_DDOT":0},{"OBJECT_NAME":"FLOCK 4Q-27","OBJECT_ID":"2023-174AC","EPOCH":"2025-03-09T17:23:04.997760","MEAN_MOTION":15.31404471,"ECCENTRICITY":0.000762,"INCLINATION":97.4203,"RA_OF_ASC_NODE":147.856,"ARG_OF_PERICENTER":26.1909,"MEAN_ANOMALY":333.9717,"EPHEMERIS_TYPE":0,"CLASSIFICATION_TYPE":"U","NORAD_CAT_ID":58282,"ELEMENT_SET_NO":999,"REV_AT_EPOCH":7419,"BSTAR":0.00060381,"MEAN_MOTION_DOT":0.00018274,"MEAN_MOTION_DDOT":0},{"OBJECT_NAME":"FLOCK 4Q-17","OBJECT_ID":"2023-174AD","EPOCH":"2025-03-09T17:50:25.978272","MEAN_MOTION":15.33851622,"ECCENTRICITY":0.0007313,"INCLINATION":97.4204,"RA_OF_ASC_NODE":148.2414,"ARG_OF_PERICENTER":16.5544,"MEAN_ANOMALY":343.5936,"EPHEMERIS_TYPE":0,"CLASSIFICATION_TYPE":"U","NORAD_CAT_ID":58283,"ELEMENT_SET_NO":999,"REV_AT_EPOCH":7422,"BSTAR":0.00094987,"MEAN_MOTION_DOT":0.00031136,"MEAN_MOTION_DDOT":0},{"OBJECT_NAME":"FLOCK 4Q-26","OBJECT_ID":"2023-174AE","EPOCH":"2025-03-09T17:45:54.347040","MEAN_MOTION":15.31960728,"ECCENTRICITY":0.0008102,"INCLINATION":97.4251,"RA_OF_ASC_NODE":148.3472,"ARG_OF_PERICENTER":27.3067,"MEAN_ANOMALY":332.8599,"EPHEMERIS_TYPE":0,"CLASSIFICATION_TYPE":"U","NORAD_CAT_ID":58284,"ELEMENT_SET_NO":999,"REV_AT_EPOCH":7420,"BSTAR":0.00087148,"MEAN_MOTION_DOT":0.00026904,"MEAN_MOTION_DDOT":0},{"OBJECT_NAME":"FLOCK 4Q-31","OBJECT_ID":"2023-174AF","EPOCH":"2025-03-09T18:09:30.861216","MEAN_MOTION":15.30794902,"ECCENTRICITY":0.0009071,"INCLINATION":97.4294,"RA_OF_ASC_NODE":148.3131,"ARG_OF_PERICENTER":27.7416,"MEAN_ANOMALY":332.4307,"EPHEMERIS_TYPE":0,"CLASSIFICATION_TYPE":"U","NORAD_CAT_ID":58285,"ELEMENT_SET_NO":999,"REV_AT_EPOCH":7419,"BSTAR":0.00081646,"MEAN_MOTION_DOT":0.00024301,"MEAN_MOTION_DDOT":0},{"OBJECT_NAME":"FLOCK 4Q-30","OBJECT_ID":"2023-174AG","EPOCH":"2025-03-09T18:53:05.108352","MEAN_MOTION":15.31233723,"ECCENTRICITY":0.0008876,"INCLINATION":97.4291,"RA_OF_ASC_NODE":148.4241,"ARG_OF_PERICENTER":26.9352,"MEAN_ANOMALY":333.2348,"EPHEMERIS_TYPE":0,"CLASSIFICATION_TYPE":"U","NORAD_CAT_ID":58286,"ELEMENT_SET_NO":999,"REV_AT_EPOCH":7420,"BSTAR":0.00077961,"MEAN_MOTION_DOT":0.00023516,"MEAN_MOTION_DDOT":0},{"OBJECT_NAME":"PELICAN-1","OBJECT_ID":"2023-174AS","EPOCH":"2025-03-09T17:41:47.175648","MEAN_MOTION":15.37183703,"ECCENTRICITY":0.0009818,"INCLINATION":97.4263,"RA_OF_ASC_NODE":150.3568,"ARG_OF_PERICENTER":258.9951,"MEAN_ANOMALY":101.019,"EPHEMERIS_TYPE":0,"CLASSIFICATION_TYPE":"U","NORAD_CAT_ID":58296,"ELEMENT_SET_NO":999,"REV_AT_EPOCH":7433,"BSTAR":0.00097925,"MEAN_MOTION_DOT":0.00035747,"MEAN_MOTION_DDOT":0},{"OBJECT_NAME":"FLOCK 4Q-25","OBJECT_ID":"2023-174AZ","EPOCH":"2025-03-09T18:58:14.864448","MEAN_MOTION":15.32854639,"ECCENTRICITY":0.000798,"INCLINATION":97.4199,"RA_OF_ASC_NODE":147.9906,"ARG_OF_PERICENTER":8.9884,"MEAN_ANOMALY":351.1499,"EPHEMERIS_TYPE":0,"CLASSIFICATION_TYPE":"U","NORAD_CAT_ID":58303,"ELEMENT_SET_NO":999,"REV_AT_EPOCH":7421,"BSTAR":0.00099842,"MEAN_MOTION_DOT":0.00031728,"MEAN_MOTION_DDOT":0},{"OBJECT_NAME":"FLOCK 4Q-29","OBJECT_ID":"2023-174BA","EPOCH":"2025-03-09T15:46:33.293856","MEAN_MOTION":15.31028532,"ECCENTRICITY":0.0008743,"INCLINATION":97.4285,"RA_OF_ASC_NODE":148.1347,"ARG_OF_PERICENTER":15.2809,"MEAN_ANOMALY":344.8694,"EPHEMERIS_TYPE":0,"CLASSIFICATION_TYPE":"U","NORAD_CAT_ID":58304,"ELEMENT_SET_NO":999,"REV_AT_EPOCH":7417,"BSTAR":0.00077148,"MEAN_MOTION_DOT":0.0002312,"MEAN_MOTION_DDOT":0},{"OBJECT_NAME":"FLOCK 4Q-22","OBJECT_ID":"2023-174BC","EPOCH":"2025-03-09T19:14:12.077952","MEAN_MOTION":15.32092776,"ECCENTRICITY":0.0007587,"INCLINATION":97.4202,"RA_OF_ASC_NODE":148.0153,"ARG_OF_PERICENTER":13.8178,"MEAN_ANOMALY":346.3269,"EPHEMERIS_TYPE":0,"CLASSIFICATION_TYPE":"U","NORAD_CAT_ID":58306,"ELEMENT_SET_NO":999,"REV_AT_EPOCH":7421,"BSTAR":0.00083062,"MEAN_MOTION_DOT":0.00025738,"MEAN_MOTION_DDOT":0},{"OBJECT_NAME":"FLOCK 4Q-23","OBJECT_ID":"2023-174BD","EPOCH":"2025-03-09T18:13:25.948704","MEAN_MOTION":15.32327025,"ECCENTRICITY":0.0009381,"INCLINATION":97.4288,"RA_OF_ASC_NODE":148.4264,"ARG_OF_PERICENTER":14.0894,"MEAN_ANOMALY":346.0608,"EPHEMERIS_TYPE":0,"CLASSIFICATION_TYPE":"U","NORAD_CAT_ID":58307,"ELEMENT_SET_NO":999,"REV_AT_EPOCH":7420,"BSTAR":0.00095668,"MEAN_MOTION_DOT":0.00029904,"MEAN_MOTION_DDOT":0},{"OBJECT_NAME":"FLOCK 4Q-33","OBJECT_ID":"2023-174BE","EPOCH":"2025-03-09T18:53:08.754432","MEAN_MOTION":15.31785802,"ECCENTRICITY":0.0008717,"INCLINATION":97.422,"RA_OF_ASC_NODE":148.1246,"ARG_OF_PERICENTER":11.9149,"MEAN_ANOMALY":348.2297,"EPHEMERIS_TYPE":0,"CLASSIFICATION_TYPE":"U","NORAD_CAT_ID":58308,"ELEMENT_SET_NO":999,"REV_AT_EPOCH":7421,"BSTAR":0.00086665,"MEAN_MOTION_DOT":0.00026612,"MEAN_MOTION_DDOT":0},{"OBJECT_NAME":"FLOCK 4Q-35","OBJECT_ID":"2023-174BF","EPOCH":"2025-03-09T18:02:01.069728","MEAN_MOTION":15.31702036,"ECCENTRICITY":0.0009035,"INCLINATION":97.4259,"RA_OF_ASC_NODE":148.3096,"ARG_OF_PERICENTER":17.8552,"MEAN_ANOMALY":342.3005,"EPHEMERIS_TYPE":0,"CLASSIFICATION_TYPE":"U","NORAD_CAT_ID":58309,"ELEMENT_SET_NO":999,"REV_AT_EPOCH":7420,"BSTAR":0.00083163,"MEAN_MOTION_DOT":0.00025466,"MEAN_MOTION_DDOT":0},{"OBJECT_NAME":"FLOCK 4Q-14","OBJECT_ID":"2023-174BH","EPOCH":"2025-03-09T18:09:03.824928","MEAN_MOTION":15.29949859,"ECCENTRICITY":0.0007873,"INCLINATION":97.4202,"RA_OF_ASC_NODE":147.4643,"ARG_OF_PERICENTER":10.4017,"MEAN_ANOMALY":349.7385,"EPHEMERIS_TYPE":0,"CLASSIFICATION_TYPE":"U","NORAD_CAT_ID":58311,"ELEMENT_SET_NO":999,"REV_AT_EPOCH":7417,"BSTAR":0.00077442,"MEAN_MOTION_DOT":0.0002244,"MEAN_MOTION_DDOT":0},{"OBJECT_NAME":"FLOCK 4Q-20","OBJECT_ID":"2023-174BK","EPOCH":"2025-03-09T18:52:33.936096","MEAN_MOTION":15.33995124,"ECCENTRICITY":0.0009153,"INCLINATION":97.4269,"RA_OF_ASC_NODE":148.9206,"ARG_OF_PERICENTER":9.2697,"MEAN_ANOMALY":350.8712,"EPHEMERIS_TYPE":0,"CLASSIFICATION_TYPE":"U","NORAD_CAT_ID":58313,"ELEMENT_SET_NO":999,"REV_AT_EPOCH":7424,"BSTAR":0.00093154,"MEAN_MOTION_DOT":0.00030685,"MEAN_MOTION_DDOT":0},{"OBJECT_NAME":"FLOCK 4Q-6","OBJECT_ID":"2023-174BM","EPOCH":"2025-03-09T18:24:59.816736","MEAN_MOTION":15.29798674,"ECCENTRICITY":0.0008326,"INCLINATION":97.4201,"RA_OF_ASC_NODE":147.5914,"ARG_OF_PERICENTER":11.3741,"MEAN_ANOMALY":348.7686,"EPHEMERIS_TYPE":0,"CLASSIFICATION_TYPE":"U","NORAD_CAT_ID":58315,"ELEMENT_SET_NO":999,"REV_AT_EPOCH":7418,"BSTAR":0.00061604,"MEAN_MOTION_DOT":0.00017743,"MEAN_MOTION_DDOT":0},{"OBJECT_NAME":"FLOCK 4Q-34","OBJECT_ID":"2023-174BN","EPOCH":"2025-03-09T18:32:01.000320","MEAN_MOTION":15.32445028,"ECCENTRICITY":0.0008936,"INCLINATION":97.4227,"RA_OF_ASC_NODE":148.1875,"ARG_OF_PERICENTER":10.0502,"MEAN_ANOMALY":350.0917,"EPHEMERIS_TYPE":0,"CLASSIFICATION_TYPE":"U","NORAD_CAT_ID":58316,"ELEMENT_SET_NO":999,"REV_AT_EPOCH":7421,"BSTAR":0.00093441,"MEAN_MOTION_DOT":0.00029308,"MEAN_MOTION_DDOT":0}]
