FLOCK 4Q-28             
1 58280U 23174AA  25068.78547234  .00024547  00000+0  81892-3 0  9993
2 58280  97.4262 148.1254 0007959  28.7609 331.4069 15.31029403 74197
FLOCK 4Q-27             
1 58282U 23174AC  25068.72436340  .00018274  00000+0  60381-3 0  9994
2 58282  97.4203 147.8560 0007620  26.1909 333.9717 15.31404471 74199
FLOCK 4Q-17             
1 58283U 23174AD  25068.74335623  .00031136  00000+0  94987-3 0  9990
2 58283  97.4204 148.2414 0007313  16.5544 343.5936 15.33851622 74221
FLOCK 4Q-26             
1 58284U 23174AE  25068.74021235  .00026904  00000+0  87148-3 0  9990
2 58284  97.4251 148.3472 0008102  27.3067 332.8599 15.31960728 74206
FLOCK 4Q-31             
1 58285U 23174AF  25068.75660719  .00024301  00000+0  81646-3 0  9994
2 58285  97.4294 148.3131 0009071  27.7416 332.4307 15.30794902 74193
FLOCK 4Q-30             
1 58286U 23174AG  25068.78686468  .00023516  00000+0  77961-3 0  9999
2 58286  97.4291 148.4241 0008876  26.9352 333.2348 15.31233723 74202
PELICAN-1               
1 58296U 23174AS  25068.73735157  .00035747  00000+0  97925-3 0  9996
2 58296  97.4263 150.3568 0009818 258.9951 101.0190 15.37183703 74333
FLOCK 4Q-25             
1 58303U 23174AZ  25068.79044982  .00031728  00000+0  99842-3 0  9995
2 58303  97.4199 147.9906 0007980   8.9884 351.1499 15.32854639 74219
FLOCK 4Q-29             
1 58304U 23174BA  25068.65732979  .00023120  00000+0  77148-3 0  9993
2 58304  97.4285 148.1347 0008743  15.2809 344.8694 15.31028532 74179
FLOCK 4Q-22             
1 58306U 23174BC  25068.80152868  .00025738  00000+0  83062-3 0  9994
2 58306  97.4202 148.0153 0007587  13.8178 346.3269 15.32092776 74214
FLOCK 4Q-23             
1 58307U 23174BD  25068.75932811  .00029904  00000+0  95668-3 0  9997
2 58307  97.4288 148.4264 0009381  14.0894 346.0608 15.32327025 74209
FLOCK 4Q-33             
1 58308U 23174BE  25068.78690688  .00026612  00000+0  86665-3 0  9994
2 58308  97.4220 148.1246 0008717  11.9149 348.2297 15.31785802 74213
FLOCK 4Q-35             
1 58309U 23174BF  25068.75140127  .00025466  00000+0  83163-3 0  9996
2 58309  97.4259 148.3096 0009035  17.8552 342.3005 15.31702036 74207
FLOCK 4Q-14             
1 58311U 23174BH  25068.75629427  .00022440  00000+0  77442-3 0  9996
2 58311  97.4202 147.4643 0007873  10.4017 349.7385 15.29949859 74170
FLOCK 4Q-20             
1 58313U 23174BK  25068.78650389  .00030685  00000+0  93154-3 0  9990
2 58313  97.4269 148.9206 0009153   9.2697 350.8712 15.33995124 74245
FLOCK 4Q-6              
1 58315U 23174BM  25068.76735899  .00017743  00000+0  61604-3 0  9995
2 58315  97.4201 147.5914 0008326  11.3741 348.7686 15.29798674 74184
FLOCK 4Q-34             
1 58316U 23174BN  25068.77223380  .00029308  00000+0  93441-3 0  9998
2 58316  97.4227 148.1875 0008936  10.0502 350.0917 15.32445028 74217
